{"type":"FeatureCollection","features":[{"type":"Feature","properties":{"kind":"road"},"geometry":{"type":"MultiPolygon","coordinates":[[[[139.755714888355,35.693987665151255],[139.7543923049239,35.69431134308343],[139.75423200135313,35.694348755748344],[139.75397775645607,35.69443573701984],[139.75380600116486,35.69453441119593],[139.75376473884282,35.69456253450603],[139.75372408771105,35.69459519603254],[139.7535699244524,35.69445314590515],[139.7535245619152,35.694486136941556],[139.7536805197375,35.69462984252601],[139.75353069688506,35.69474762937991],[139.75344920588586,35.69482052146254],[139.75330309048996,35.694942230917476],[139.75316579118882,35.69511255710055],[139.75305776243044,35.69530992342393],[139.75299041618715,35.69554929872555],[139.75297524897815,35.69554329459116],[139.75296062446327,35.69554038026658],[139.75278320888253,35.69551977524344],[139.752773,35.695563],[139.75276966302903,35.695644755805866],[139.75293897551992,35.69566441973179],[139.75296175572916,35.69566427156808],[139.75295706691375,35.695684482470355],[139.75276883935976,35.69566183965561],[139.75274839272018,35.69576871270861],[139.75293573961963,35.69579126977063],[139.75285165657417,35.696302632401675],[139.7527568974323,35.69685155916601],[139.75271149483612,35.69684723510301],[139.753193,35.697046],[139.755671,35.698092],[139.755916,35.698187],[139.757278,35.698744000000005],[139.757512,35.698832],[139.75789,35.698984],[139.758119,35.699072],[139.7581239178139,35.69906701834383],[139.75792946141823,35.69898333128044],[139.75821635489328,35.69867741864154],[139.75842778346188,35.698759134072816],[139.75845118724436,35.69873326685317],[139.75799680864225,35.69855769486336],[139.75785152666438,35.6984993676028],[139.7580868895654,35.698234837399376],[139.7585445415126,35.6984082102795],[139.75868687695905,35.6984727676991],[139.75872569728665,35.69842848824306],[139.75859127625367,35.69836752834177],[139.75884699016052,35.697947393950194],[139.7590257111057,35.69802042818415],[139.7590450784244,35.69799305724937],[139.75886389761817,35.69791901782316],[139.75895601047705,35.69776097065345],[139.75915466557848,35.69783829671094],[139.75918450809715,35.6977949997664],[139.75896444615037,35.6977093362138],[139.75849387914053,35.697530278469436],[139.75855561868062,35.69742521026343],[139.75924849005332,35.69770196177355],[139.7592674335518,35.69767441544208],[139.75857221294964,35.69739671158296],[139.75866605391187,35.69723400533779],[139.75937788878616,35.69751379860409],[139.75941038880975,35.69746653903473],[139.75920910193142,35.697387414165306],[139.75940221486832,35.69710254818591],[139.75960040948007,35.697190221162934],[139.75961993460487,35.69716298323635],[139.75941657497967,35.69707301832243],[139.75968766054416,35.696699097664144],[139.75991446172037,35.69675603402085],[139.75995381224095,35.69670963991264],[139.75972552266455,35.69665199817928],[139.76016701352532,35.69614027842708],[139.76017034121674,35.696133439889515],[139.76017183798967,35.69610964055908],[139.7604478650305,35.69611584197512],[139.76043641599077,35.69616014116434],[139.760527,35.696057],[139.760556,35.69601800000001],[139.7605986565584,35.695994386552606],[139.76056945680347,35.69600029648422],[139.76049203797177,35.69600879913116],[139.76047582024881,35.69600836613743],[139.76047156366724,35.696004852394005],[139.760528645575,35.696000807024426],[139.7606132068313,35.695986187961054],[139.760988,35.695734],[139.761282,35.695516999999995],[139.76127330716616,35.69541933380186],[139.76126776127228,35.695423284759144],[139.7610960418981,35.69539146669615],[139.7607682931761,35.69537456192513],[139.76075643836242,35.695148261166466],[139.7612515454223,35.69517483403253],[139.76124872228118,35.69514311507915],[139.7607550448913,35.69511656155993],[139.76074911371217,35.694931049686126],[139.76122814471108,35.694943354435104],[139.76122298702848,35.69489357173037],[139.76074821953338,35.694881431281786],[139.7607476475842,35.69465522472786],[139.76119916271182,35.69466361514838],[139.76119167543462,35.694591346331165],[139.75970323736593,35.694564605293266],[139.75972825757847,35.69390672093068],[139.76040009129363,35.693901423656875],[139.76039678578192,35.693987296421284],[139.7600253391659,35.693978965145924],[139.76001640722077,35.6939813463981],[139.76001092632768,35.69398557603771],[139.76000784683245,35.69399119471788],[139.76000804740752,35.693998858493124],[139.760015515313,35.6940075674507],[139.7600261636578,35.69401046789595],[139.76077003376437,35.694027636396555],[139.76077731443164,35.69402602216551],[139.76078328362908,35.694022257962466],[139.7607880284416,35.69401235964986],[139.76078677278,35.69400629078949],[139.76078276570198,35.6940010758807],[139.76077115527252,35.693996253710814],[139.76043544365183,35.69398819367078],[139.76043879490726,35.69390110079898],[139.761129621854,35.693895665244135],[139.761125,35.69384199999999],[139.76111500678934,35.693823679114686],[139.76072473376067,35.693826556479635],[139.76072396925542,35.69381825555957],[139.760667,35.693818],[139.76066300726995,35.69381805445356],[139.76066383445175,35.693827035983766],[139.7602468692499,35.693830546933945],[139.75971992563169,35.69383467328219],[139.7597202018901,35.69382730312783],[139.75965385775928,35.693827735377056],[139.75965359598445,35.69383471897618],[139.75915794862365,35.6938309651955],[139.75870246433033,35.69383970996226],[139.75867922437328,35.69383408115187],[139.758538,35.69383499999999],[139.7583084692333,35.694925008293225],[139.758245,35.69492600000001],[139.75751,35.694899],[139.757102,35.69488],[139.756345,35.694857],[139.755752,35.694834],[139.755825,35.694123],[139.755986,35.693747],[139.756051,35.693562],[139.756098,35.693407],[139.75611006351613,35.69331221524882],[139.75583614358246,35.69400329423037],[139.755714888355,35.693987665151255]],[[139.75672251884183,35.69848413424469],[139.75648110158792,35.698384138097516],[139.7566571103279,35.69806093747501],[139.7569113241661,35.6981597562014],[139.75672251884183,35.69848413424469]],[[139.75775734478384,35.69851858564279],[139.75769318195407,35.69859238027168],[139.7570251937516,35.69834213701089],[139.75707744545812,35.698252864082306],[139.75775734478384,35.69851858564279]],[[139.7577810990547,35.698492887937824],[139.7570938626989,35.698224299278685],[139.7571659908952,35.69809303799355],[139.757897232856,35.698363949964374],[139.7577810990547,35.698492887937824]],[[139.75667302286135,35.698032174892965],[139.7568274892805,35.69775804759237],[139.757079341951,35.697857955579494],[139.7569272897089,35.69813102031676],[139.75667302286135,35.698032174892965]],[[139.75685310944067,35.69771308286959],[139.75705012746425,35.69737119316838],[139.75729714792303,35.6974639762114],[139.75720877616885,35.69762796371209],[139.75710475196618,35.69781291857156],[139.75685310944067,35.69771308286959]],[[139.75706642119738,35.69734258162326],[139.75716796965762,35.69716213334131],[139.75741221812564,35.69725013183948],[139.75731279430255,35.69743512523316],[139.75706642119738,35.69734258162326]],[[139.75743937802253,35.697200793849156],[139.75717786465228,35.697106597510036],[139.75700388574066,35.697039490158765],[139.75718562701636,35.69671962744022],[139.75762349891352,35.69687693563212],[139.75743937802253,35.697200793849156]],[[139.75729874336724,35.696508955879274],[139.7578243182318,35.69652121342595],[139.75763990931992,35.69684835656654],[139.7572014420948,35.696690837171694],[139.75729874336724,35.696508955879274]],[[139.75785179473885,35.69647226858919],[139.75727997093367,35.6964589225352],[139.75659295388644,35.69644281977798],[139.7567525271235,35.69611238484141],[139.75680028376445,35.69602014806434],[139.75715232735593,35.69603173160318],[139.75786148053714,35.696058526028004],[139.75798900087406,35.69606192327174],[139.7579696914885,35.696149600797554],[139.75794104573424,35.696239521567506],[139.75785179473885,35.69647226858919]],[[139.7580368791924,35.6958479365839],[139.75764144189523,35.69583626425288],[139.75765910970824,35.69531707203898],[139.7581389151478,35.69533439657314],[139.75809162960104,35.69559374350008],[139.75805755420828,35.69576530293433],[139.7580368791924,35.6958479365839]],[[139.75713405823498,35.69582169575445],[139.7571452185305,35.695527438403914],[139.75761264387108,35.69554590789144],[139.7576027895963,35.69583518052061],[139.75713405823498,35.69582169575445]],[[139.75714750803104,35.69549594344065],[139.75715385685638,35.69529699987775],[139.75762047033962,35.6953156164105],[139.75761371535998,35.695514365320705],[139.75714750803104,35.69549594344065]],[[139.75814825083273,35.69528514430248],[139.75753546736524,35.69526260101689],[139.75755250554406,35.69493538285952],[139.75821335641353,35.69496158283028],[139.75814825083273,35.69528514430248]],[[139.757156555051,35.6952474729692],[139.75717930195322,35.69492520969184],[139.75751386349916,35.69493410417344],[139.75749683843037,35.69526106133707],[139.757156555051,35.6952474729692]],[[139.75554338687272,35.695491379007116],[139.75539222757632,35.695780387407986],[139.75519053188543,35.69577410403646],[139.7546965252774,35.695740375941725],[139.75472228634777,35.695456652183424],[139.75554338687272,35.695491379007116]],[[139.75472493536668,35.69542517394573],[139.7547419851581,35.69520591447206],[139.75567324224116,35.695238235255296],[139.75555942955944,35.69546046447227],[139.75472493536668,35.69542517394573]],[[139.7553578606004,35.695177696546224],[139.75537240938203,35.69485290425374],[139.75571651423095,35.69486578685851],[139.75572708648,35.69487819032033],[139.75569131651227,35.69518924539369],[139.7553578606004,35.695177696546224]],[[139.75438501518596,35.69514389248478],[139.7544051474193,35.69481829010588],[139.7553337739624,35.6948514731438],[139.75531922109698,35.69517635803275],[139.75438501518596,35.69514389248478]],[[139.75571295051793,35.6948114452801],[139.7553491382175,35.69479792733108],[139.75537949269665,35.694126423864276],[139.7557178831355,35.69404239914621],[139.75581959194102,35.694055891157184],[139.7557971255169,35.694143770277925],[139.75575754932905,35.69446977191803],[139.75571295051793,35.6948114452801]],[[139.75459573481746,35.69739241953103],[139.75504508818355,35.6975760417121],[139.75517332768717,35.69763074183418],[139.75508116190213,35.697776941966445],[139.7550634796157,35.69779668632528],[139.75450030607578,35.69756304132205],[139.75459573481746,35.69739241953103]],[[139.7554274884441,35.69721902678462],[139.75519088867338,35.69760263168437],[139.75507987030983,35.69755527719689],[139.75531845012765,35.69717629169827],[139.7554274884441,35.69721902678462]],[[139.75461173204695,35.69736367181252],[139.754823509469,35.69698192446224],[139.7552835857734,35.69716261198123],[139.75504544392112,35.69754090150782],[139.75461173204695,35.69736367181252]],[[139.75568964044987,35.69678071399208],[139.75545441821274,35.69717458068386],[139.75484833389578,35.69693665247232],[139.75506310721275,35.69653995742476],[139.75568964044987,35.69678071399208]],[[139.75510843308072,35.696457608414896],[139.75524974913105,35.696460877934236],[139.75588027119196,35.69647565156584],[139.75570690167612,35.696752473958945],[139.755078861192,35.69651113906059],[139.75510843308072,35.696457608414896]],[[139.75513593158664,35.69640866143429],[139.7553786752881,35.69598154873811],[139.75556980792356,35.69598837187269],[139.75606630550655,35.69599626547603],[139.75637300140914,35.69600418266435],[139.75636103211835,35.69643736508745],[139.75513593158664,35.69640866143429]],[[139.75468365439883,35.69545502196329],[139.75465798966147,35.69573768035816],[139.75409480740066,35.69569741219338],[139.7542395406249,35.695436332905366],[139.75468365439883,35.69545502196329]],[[139.75314164603344,35.69568030900641],[139.7538496462394,35.69578008320238],[139.75396080709092,35.69579354168771],[139.75395253807213,35.69580707706334],[139.75302273594346,35.69569226807136],[139.75302867931174,35.695666649389274],[139.75314164603344,35.69568030900641]],[[139.75385521277985,35.69512554750387],[139.75325152438305,35.695104583591274],[139.75335483224856,35.694976249767045],[139.75349696595862,35.69485803464718],[139.753568089695,35.6947943690607],[139.75386652874025,35.694799120727346],[139.75385521277985,35.69512554750387]],[[139.75406599365866,35.695132852302706],[139.75389385605249,35.69512688835093],[139.75390519287407,35.694799842208106],[139.75407770871598,35.69480351797196],[139.75406599365866,35.695132852302706]],[[139.75433893646496,35.6948155232326],[139.7543187754233,35.695141596327986],[139.75410463565348,35.69513418997731],[139.75411635072766,35.69480486623238],[139.75433893646496,35.6948155232326]],[[139.75355835517038,35.695320947371606],[139.75358900699362,35.69516591770869],[139.7543014685877,35.695190617600645],[139.75414739507795,35.69547212844125],[139.75355835517038,35.695320947371606]],[[139.753501102033,35.69562065175164],[139.75355224993578,35.695352453013975],[139.75413138103966,35.69550109092419],[139.75402408334622,35.6956918467917],[139.7538715392315,35.69567340130509],[139.753501102033,35.69562065175164]],[[139.75468631043765,35.69542354386332],[139.75425644351557,35.695405454364476],[139.7543727099559,35.6951930852208],[139.75470333759347,35.695204571478016],[139.75468631043765,35.69542354386332]],[[139.75321582667277,35.695152976571954],[139.7535501047048,35.69516456627276],[139.75346294471402,35.6956155029766],[139.7531632841167,35.69557359293089],[139.7530552734577,35.69556051894191],[139.75312078340005,35.69532711635038],[139.75321582667277,35.695152976571954]],[[139.75534036624336,35.69413602285402],[139.75531050337233,35.69479648686048],[139.7544084793221,35.69476427514159],[139.7544335119017,35.69435772773048],[139.75534036624336,35.69413602285402]],[[139.7536342823172,35.69474130338724],[139.75381026922216,35.69460186247862],[139.7538473809351,35.69457667952613],[139.75400993899808,35.694483203751346],[139.75425577476133,35.69439926699252],[139.75436613029535,35.694373648765776],[139.75434226844322,35.69476150753735],[139.75409886549727,35.69474986814171],[139.7536342823172,35.69474130338724]],[[139.7538928523279,35.695909074972775],[139.7536350786407,35.69632287576357],[139.75292165105122,35.69628353568148],[139.75294665165464,35.69613012967021],[139.75312844079218,35.696141269858906],[139.7531406049162,35.69613746215723],[139.75314704666962,35.69612822388575],[139.75314687467963,35.69612207079207],[139.75314382919112,35.69611643976438],[139.7531383738525,35.69611218807543],[139.75313133918965,35.696109963006066],[139.75295178788318,35.69609881030591],[139.75300135485557,35.69579902473168],[139.7538928523279,35.695909074972775]],[[139.75446178312436,35.69583223218202],[139.75402404208936,35.69581128570872],[139.7540301081837,35.69580135623479],[139.75446178312436,35.69583223218202]],[[139.7552829033524,35.69597810385222],[139.75515807278978,35.69619702917803],[139.75505402410107,35.69618795271692],[139.75452352420498,35.69616275272194],[139.75451438188986,35.696164145980426],[139.75450602029002,35.696170116137736],[139.75450311667393,35.6961773236386],[139.75448478845504,35.69637724311789],[139.75370096371293,35.696326908628436],[139.75395639841102,35.69591639897262],[139.75513554530096,35.695972790656285],[139.7552829033524,35.69597810385222]],[[139.75360524477094,35.696370922571155],[139.75320929608273,35.69701446797194],[139.75288580681956,35.69687797573581],[139.75282204930602,35.69686201083012],[139.75291340685422,35.69633276584267],[139.75360524477094,35.696370922571155]],[[139.7532633707881,35.697037101080234],[139.7536709014236,35.696374714295246],[139.75449926967596,35.6964279018469],[139.75399891458258,35.69734237752274],[139.7532633707881,35.697037101080234]],[[139.75475584888534,35.6969289843916],[139.75442715764802,35.69752012487238],[139.754053150152,35.69736489022789],[139.7545639913954,35.6964312002225],[139.7550135762278,35.69645380160806],[139.75475584888534,35.6969289843916]],[[139.75505130682853,35.696219425002134],[139.75514099594199,35.69622726497959],[139.75504041063422,35.696405477506396],[139.75452336700863,35.69637946707574],[139.75454026480526,35.69619514934139],[139.75505130682853,35.696219425002134]],[[139.7551341238849,35.69780133568818],[139.75535280599823,35.69745110797079],[139.7558920466098,35.69765714526119],[139.75568921404306,35.698052440320566],[139.75511852118723,35.69781926789422],[139.7551341238849,35.69780133568818]],[[139.75590718356906,35.697628096909824],[139.75537019374468,35.69742291445903],[139.75548221530383,35.69724059824882],[139.75600299901652,35.697447103077536],[139.75590718356906,35.697628096909824]],[[139.75641165594817,35.696005435101064],[139.7567355611189,35.69601775185885],[139.75669614138548,35.69609388646974],[139.75652884840903,35.69644132188482],[139.75639969054924,35.69643828252697],[139.75641165594817,35.696005435101064]],[[139.75581509805335,35.69488491747681],[139.75583140197702,35.69487073749791],[139.75634873212985,35.694890664696466],[139.75632891558226,35.69521446676921],[139.7557797193083,35.695192560608994],[139.75581509805335,35.69488491747681]],[[139.75711305717002,35.69492288824726],[139.75709033487044,35.69524481379321],[139.75636754303957,35.69521601269552],[139.75638735862393,35.694892223487855],[139.75711305717002,35.69492288824726]],[[139.75617926601828,35.69547748725652],[139.75619076256433,35.695258544445544],[139.75708762853955,35.6952943405338],[139.75708015611838,35.695493794218486],[139.75617926601828,35.69547748725652]],[[139.75616255421514,35.69579577943097],[139.7561776087317,35.69550901294105],[139.75707896849596,35.695525328409],[139.75706779729913,35.695819864885685],[139.75616255421514,35.69579577943097]],[[139.75613894491644,35.69550814318084],[139.75612388868467,35.695794941621976],[139.75562647640766,35.69578693592057],[139.75548722031073,35.6957830876682],[139.7556376589552,35.695494731970946],[139.75613894491644,35.69550814318084]],[[139.75565363591244,35.69546359423564],[139.75576721406176,35.695241695841446],[139.75615213383415,35.69525700052445],[139.7561406018869,35.69547662262908],[139.75565363591244,35.69546359423564]],[[139.75613147305677,35.69719412908132],[139.7560266477939,35.69740135426348],[139.75550913852612,35.69719615175952],[139.75575279108745,35.696788168407096],[139.75585523285417,35.69662463235136],[139.75634087364227,35.69679588231928],[139.75613147305677,35.69719412908132]],[[139.75594752491943,35.69647722926648],[139.75650312510894,35.69649032664047],[139.75635621761165,35.696766923570394],[139.7558728630164,35.69659647986909],[139.75594752491943,35.69647722926648]],[[139.7570532863346,35.69683563976449],[139.7565011194017,35.69661941736294],[139.75656907462414,35.69649185259985],[139.75723325467624,35.696507422454935],[139.75713816941195,35.6966851611442],[139.7570532863346,35.69683563976449]],[[139.75693783570696,35.69703524204865],[139.75693243171764,35.697041840551336],[139.7569292900417,35.69705260053005],[139.75680659366364,35.69726576500939],[139.75673977199358,35.69739556046691],[139.7561947324163,35.697199586943576],[139.7564857852785,35.696648407450745],[139.75703702854105,35.69686426808951],[139.75693783570696,35.69703524204865]],[[139.75713278652017,35.69714903355286],[139.75703115899358,35.697329622192164],[139.75687015569684,35.697271981933426],[139.7569757820385,35.697088473575214],[139.75713278652017,35.69714903355286]],[[139.7566086062967,35.69761964434724],[139.75608216583768,35.697421572776236],[139.7561797386939,35.69722867859123],[139.75672388164716,35.69742432377031],[139.7566086062967,35.69761964434724]],[[139.7567881189676,35.69742969416789],[139.75685444349472,35.6973008094176],[139.75701485783054,35.69735823882904],[139.75681820974782,35.697699486304536],[139.75666371139542,35.697640563522526],[139.7567881189676,35.69742969416789]],[[139.75590463902714,35.69776119223965],[139.75605853175753,35.69746725227248],[139.75658269714825,35.6976644901804],[139.75642581868482,35.69794188083125],[139.75590463902714,35.69776119223965]],[[139.7566379302988,35.69801891360019],[139.75648153108767,35.69796171707166],[139.75663779829503,35.69768540689828],[139.756792590896,35.69774444190816],[139.7566379302988,35.69801891360019]],[[139.7562330927187,35.698280738443934],[139.75574354045904,35.69807490637241],[139.755889718317,35.697790305699094],[139.75640956849605,35.697970526637974],[139.7562330927187,35.698280738443934]],[[139.7564652907678,35.69799035123551],[139.75662201696028,35.69804766734834],[139.75644657489957,35.698369872852105],[139.75628719858895,35.6983034008998],[139.7564652907678,35.69799035123551]],[[139.75767049220582,35.69861859638481],[139.75750799439706,35.69880690896491],[139.75689968921031,35.698557992457346],[139.75700862012084,35.698370642938336],[139.75767049220582,35.69861859638481]],[[139.7579798605989,35.69858605264076],[139.75818061276763,35.69866360771917],[139.75789469835655,35.698968469829204],[139.75756261073826,35.69882974418585],[139.75782751607065,35.69852488992268],[139.7579798605989,35.69858605264076]],[[139.75935788838035,35.697084117075335],[139.75916423544297,35.697369779382726],[139.75898202502353,35.69729813903414],[139.75915827083935,35.697005751114055],[139.75935788838035,35.697084117075335]],[[139.75885946652954,35.69688848577322],[139.759113461895,35.69698816321636],[139.75893722796144,35.697280531152416],[139.7586939239955,35.69718492682781],[139.75885946652954,35.69688848577322]],[[139.75937657381394,35.6966206765799],[139.759136570528,35.69696222297884],[139.7588754958632,35.69685976736617],[139.75904930402282,35.69654821642497],[139.75937657381394,35.6966206765799]],[[139.7592984579656,35.6960881344889],[139.75973335548366,35.69609698524678],[139.75941022674266,35.69657208869823],[139.75907667797694,35.696498238372996],[139.7592984579656,35.6960881344889]],[[139.75900946176432,35.696488545530656],[139.75878381912486,35.696483235298125],[139.75879453396786,35.69627458832843],[139.75879786032996,35.696080742008235],[139.75922630156566,35.69608734648776],[139.75900946176432,35.696488545530656]],[[139.7587561351638,35.69625823908753],[139.75814355616134,35.69624891483235],[139.7581647813668,35.69618134407312],[139.7581901139397,35.69606631594125],[139.75834915899918,35.69606886468111],[139.75875919760574,35.69607986668068],[139.7587561351638,35.69625823908753]],[[139.75825357072193,35.695792859244776],[139.75828694247835,35.69562483599553],[139.75878196781218,35.69562966044723],[139.75877978906547,35.69586584219473],[139.75823854199928,35.69585326566027],[139.75825357072193,35.695792859244776]],[[139.75882079056933,35.695613598882424],[139.75959622915803,35.6956226783722],[139.75958908891948,35.69588293475556],[139.75881845601123,35.69586671776385],[139.75882079056933,35.695613598882424]],[[139.75882200099275,35.69558206183709],[139.75883704763677,35.69535667063811],[139.75900432692305,35.695361123573676],[139.75901744697927,35.69536372742936],[139.7590306985656,35.695361824288774],[139.75960307972966,35.69537700391398],[139.75959709443322,35.69559113737087],[139.75882200099275,35.69558206183709]],[[139.75878266213246,35.69559118142154],[139.75877507752045,35.69559804970811],[139.75829276713222,35.69559343877799],[139.75833843917485,35.69534296082569],[139.758798384175,35.69535564174127],[139.75878266213246,35.69559118142154]],[[139.75839443912835,35.6950666973901],[139.75899525265373,35.6950821282566],[139.75898633380706,35.69531104291776],[139.75834812574794,35.695293742738805],[139.75839443912835,35.6950666973901]],[[139.75843928023983,35.694860072730485],[139.75874718765164,35.6948696421367],[139.75874391463685,35.69494643759194],[139.75849505548504,35.69493754906742],[139.75848774589554,35.694939074103964],[139.75848170814203,35.6949427649039],[139.7584773195698,35.69494954311282],[139.758476986708,35.69495569181495],[139.75848318530575,35.6949650400865],[139.75849335751417,35.69496891451103],[139.7587617469592,35.694978658605706],[139.75877427247772,35.694975475925766],[139.7587793112526,35.694970836198394],[139.75878176950033,35.694964970975256],[139.75878583833102,35.69487075449366],[139.75900328622947,35.69487623909748],[139.75899648094153,35.695050596238815],[139.75840052883927,35.695035325155246],[139.75841631568085,35.69495299131587],[139.75843928023983,35.694860072730485]],[[139.75849692047882,35.69462301752659],[139.75901293463042,35.69462802122949],[139.75900522534297,35.69482668900434],[139.75845134071076,35.69481071040226],[139.75849692047882,35.69462301752659]],[[139.75864698061372,35.6939014923899],[139.75868402007072,35.693910463494944],[139.7586977386849,35.69391194280932],[139.75912027787376,35.69390305880719],[139.7596398183409,35.69390673381383],[139.75961484874895,35.69456328961306],[139.75851324321073,35.694551055242236],[139.75856788924878,35.69427536091074],[139.75864698061372,35.6939014923899]],[[139.7587451575825,35.69648232231967],[139.7585486696947,35.69647766621915],[139.75806174968088,35.69646895890767],[139.7581335866886,35.69628020984659],[139.75875505066037,35.69628977610312],[139.7587451575825,35.69648232231967]],[[139.75851185195157,35.69653106541323],[139.75824428187923,35.6970081587985],[139.75785553041467,35.69685529919834],[139.75804083602364,35.69652366704749],[139.75807309132085,35.69652275199116],[139.75851185195157,35.69653106541323]],[[139.75863418755713,35.69716143675372],[139.7582791304591,35.69702185431941],[139.75836042782035,35.696877035911044],[139.75872037227018,35.6970071948206],[139.75863418755713,35.69716143675372]],[[139.75873640428264,35.69697848337459],[139.75837651941615,35.69684834602126],[139.7584505510119,35.69671624070571],[139.75881248104574,35.69684214862596],[139.75873640428264,35.69697848337459]],[[139.7589799554105,35.69654195580047],[139.75882851038364,35.69681342790023],[139.75846663945603,35.696687540553306],[139.758553915005,35.69653189503525],[139.7589799554105,35.69654195580047]],[[139.75792043889848,35.69833789908937],[139.75718196378855,35.69806430532918],[139.75725945831255,35.69792679049486],[139.75803058498187,35.698213741566995],[139.75792043889848,35.69833789908937]],[[139.75806531367294,35.69816722368686],[139.7572871826121,35.697877646348005],[139.75738269908513,35.697707817804016],[139.75816679316856,35.6979949617082],[139.75806531367294,35.69816722368686]],[[139.75818338674986,35.69796645728285],[139.75739852626162,35.697679029878735],[139.75750137262196,35.69748851914357],[139.758293407784,35.697775029497],[139.75818338674986,35.69796645728285]],[[139.7576205454706,35.697267765755356],[139.75841109318165,35.697553968318445],[139.75830995612858,35.697746505014344],[139.75751697981576,35.69745965286914],[139.7576205454706,35.697267765755356]],[[139.758606328379,35.69721052006958],[139.75843353373327,35.69750785299671],[139.75819140975534,35.697420089317696],[139.75835995176502,35.69711363345697],[139.758606328379,35.69721052006958]],[[139.75782750665135,35.69690431704107],[139.758069952587,35.69699964915],[139.75789801654798,35.69731376293414],[139.75764605937408,35.69722274842701],[139.75782750665135,35.69690431704107]],[[139.7581048056587,35.697013354287755],[139.75832509706348,35.69709993507174],[139.7581560662558,35.69740727945967],[139.7579333610993,35.69732657042481],[139.7581048056587,35.697013354287755]],[[139.75855680264152,35.69835322435201],[139.75812053323645,35.69818794814484],[139.75836860043268,35.69776138106315],[139.7588122350957,35.69793355267969],[139.75855680264152,35.69835322435201]],[[139.75846641821337,35.697574533028494],[139.75892102727522,35.69774751860946],[139.75882914082402,35.69790517719193],[139.75838450311048,35.697732616310404],[139.75846641821337,35.697574533028494]],[[139.75960444609095,35.69532743865283],[139.7590525968553,35.6953128035818],[139.759061514754,35.69508390839238],[139.75961073267183,35.695099528924175],[139.75960444609095,35.69532743865283]],[[139.75967071259396,35.69532919891984],[139.75967698287604,35.695101867528194],[139.7601802383034,35.69512300300473],[139.76017465719696,35.695342607837816],[139.75967071259396,35.69532919891984]],[[139.76069544915944,35.695145218174105],[139.76070729318218,35.69537128830516],[139.760235380881,35.695345075848564],[139.7602409579077,35.69512562500234],[139.76069544915944,35.695145218174105]],[[139.76019239622292,35.694645218159955],[139.76018852341187,35.69486167051851],[139.75968400750256,35.6948462072477],[139.75968985342143,35.69463650458338],[139.76019239622292,35.694645218159955]],[[139.75907148671826,35.6948284827024],[139.7590792374605,35.69462875194839],[139.75962356621966,35.694635520242876],[139.75961773941387,35.69484451824905],[139.75907148671826,35.6948284827024]],[[139.76024926890972,35.6948637087656],[139.76025315472663,35.694646294841604],[139.7606868728527,35.694654116706744],[139.76068744123629,35.69487958469074],[139.76024926890972,35.6948637087656]],[[139.75961159982032,35.695067986495026],[139.75906274302176,35.695052376232795],[139.75906954758122,35.69487803307888],[139.7596163711042,35.69489408127535],[139.75961159982032,35.695067986495026]],[[139.76018729456473,35.694911243335156],[139.76018118030402,35.695091452862094],[139.75967785062687,35.695070314262836],[139.75968263885366,35.69489577493996],[139.76018729456473,35.694911243335156]],[[139.76024188786772,35.69509407176473],[139.760248021529,35.694913288056746],[139.7606882621087,35.69492923857994],[139.7606941554222,35.69511357050481],[139.76024188786772,35.69509407176473]],[[139.7594481429386,35.69658136097848],[139.7597773510505,35.69609788052899],[139.7601331727332,35.696108725280176],[139.7601321565184,35.69612586535541],[139.75968665494256,35.69664223348301],[139.7594481429386,35.69658136097848]],[[139.75965537066287,35.69588415606129],[139.75966068710753,35.69569124827491],[139.76017675258745,35.69569860115771],[139.76017184668285,35.69589232381161],[139.75965537066287,35.69588415606129]],[[139.76022026174076,35.69568482517973],[139.7602210651853,35.69567499132785],[139.7602162538204,35.69566619547707],[139.7602231025058,35.69539408392935],[139.76108734398036,35.69544061308027],[139.76121115288336,35.695463613176074],[139.76071388679358,35.695819202480166],[139.76064574285834,35.69585809089503],[139.76058285172545,35.695880869039364],[139.76050545083828,35.69589425020859],[139.76041970095682,35.69589961525952],[139.76028277927648,35.695894084048284],[139.76021051377404,35.695892931251024],[139.76021561054884,35.69569166317292],[139.76022026174076,35.69568482517973]],[[139.7596617898996,35.69565069618868],[139.75966934610446,35.695378764234206],[139.76018446050526,35.69539247033095],[139.76017777691786,35.695658047952456],[139.7596617898996,35.69565069618868]],[[139.76034202628736,35.696004774311604],[139.76009423511405,35.69599928119067],[139.7602772257148,35.69600215655042],[139.76034202628736,35.696004774311604]],[[139.75964970799618,35.696689471347234],[139.7593820911044,35.69705860725291],[139.7591715111008,35.69697593765372],[139.75941491718308,35.69662954851763],[139.75964970799618,35.696689471347234]]],[[[139.76107337745165,35.693976014604026],[139.7610276688502,35.693941131591856],[139.7610147117773,35.693936999604716],[139.76082976024284,35.69393782529023],[139.76081853416403,35.6939411118837],[139.7608104763739,35.6939482853789],[139.76080744142197,35.693957694753195],[139.7608047515983,35.69412968149806],[139.76081144381016,35.6941401952663],[139.7608218169845,35.694145365902315],[139.76088136850925,35.694146499361125],[139.76088781917045,35.69416798381287],[139.76088208634926,35.69421207584844],[139.7608307424858,35.694278558375835],[139.7607907223957,35.69430760521304],[139.76067680939116,35.69430874735483],[139.7606651739177,35.69431238264043],[139.76065716176325,35.69432016650132],[139.76065475831746,35.69432809020701],[139.76064405760053,35.694549203553095],[139.76064780895933,35.69456073775369],[139.76065665174372,35.69456764882806],[139.76066846635314,35.69457027772502],[139.76105047347278,35.69457561015403],[139.76106004005206,35.69457332064176],[139.76106606151376,35.694569673723784],[139.76110398800733,35.694531008755845],[139.76110673999762,35.69452085534043],[139.76107953983285,35.69398855534576],[139.7610773007231,35.693980950075634],[139.76107337745165,35.693976014604026]],[[139.76080311449041,35.69434795043505],[139.76081682591018,35.69434295166791],[139.76086960095617,35.694304170586314],[139.76092723510988,35.694229710403704],[139.76093092280558,35.69422103905332],[139.7609378052347,35.69416523682276],[139.76092242280907,35.69411614853356],[139.7609162969218,35.69411037657799],[139.7609057046627,35.694106401520855],[139.76085443654284,35.69410582451841],[139.7608567919888,35.693978172396044],[139.76100276021617,35.69397752435967],[139.76103028347356,35.69399852880739],[139.76105666675343,35.69451484884443],[139.7610366963164,35.69453494958827],[139.7606947402853,35.69453008382968],[139.76070349847922,35.69434896428734],[139.76080311449041,35.69434795043505]]]]}}],"metadata":{"source":"© OpenStreetMap contributors (ODbL)","observedAt":"2026-09-24","note":"Road surfaces are inferred from OSM centerlines; widths without OSM tags are graphic estimates."}}
