{"type":"FeatureCollection","features":[{"type":"Feature","properties":{"kind":"mapped_sidewalk"},"geometry":{"type":"MultiPolygon","coordinates":[[[[139.75572695949927,35.6939350478164],[139.75586244545806,35.69379319197257],[139.75598226258444,35.69347850841482],[139.75595693741656,35.69347209158386],[139.75583855454346,35.693783008026244],[139.75570754002953,35.69392018215922],[139.75558343981308,35.69398155146381],[139.75442890111657,35.69426973661539],[139.75419793935262,35.694337932011464],[139.75397584465262,35.69441518671843],[139.7537476303899,35.69454476002037],[139.75371024571595,35.694571360655864],[139.75351897704613,35.69439359219608],[139.75349918201562,35.69440798862697],[139.75369903455328,35.69459373510025],[139.753709,35.6945866],[139.753717715885,35.69459475128694],[139.75376396961184,35.694561839979066],[139.75398875534893,35.6944342132812],[139.75420766064858,35.69435806798832],[139.7544372988845,35.69429026338444],[139.75559436018827,35.69400144853594],[139.7557233735696,35.69393764959767],[139.7557165,35.6939284],[139.75572695949927,35.6939350478164]]],[[[139.75370199066128,35.694735369079744],[139.7538345662834,35.69462208802413],[139.75401721970377,35.69450865895825],[139.75424635959746,35.69442474996721],[139.7544029790262,35.69438596801249],[139.75536275265006,35.69415802177528],[139.75562436925455,35.69410144533281],[139.755706324155,35.6941122594488],[139.7557163280737,35.69412990525383],[139.75565780714584,35.694789774529774],[139.75564881237855,35.694797802915836],[139.75566838762325,35.69481239708336],[139.75568359285563,35.69479882546883],[139.75574302487462,35.694128680472915],[139.7557298,35.694127900000005],[139.7557418347398,35.69412335971008],[139.75572447584284,35.69409274055051],[139.75562303074568,35.69407935466717],[139.75535564735088,35.69413717822461],[139.7543954209748,35.69436523198736],[139.75423704040372,35.694404450032586],[139.75400358029785,35.694489941041354],[139.75381683371842,35.69460591197519],[139.75368280934055,35.69472043091949],[139.75370199066128,35.694735369079744]]],[[[139.75294324051092,35.6954917005954],[139.75270672879705,35.69546243239306],[139.75270170779655,35.69548369141274],[139.75294981125057,35.69551439407686],[139.7529518,35.695503699999996],[139.75296418023197,35.69550757356496],[139.75305554548262,35.6953132600837],[139.75316364076753,35.695117374653115],[139.7532810272682,35.69496171853835],[139.7534855107931,35.69476928686767],[139.75364999922877,35.6946220866901],[139.75364020000004,35.6946148],[139.75365011838406,35.69460762139256],[139.7534622239705,35.694434867266715],[139.75344242945945,35.69444926329552],[139.75362236753037,35.69461470224874],[139.75346568920867,35.69475491313153],[139.75325957273355,35.69494888146069],[139.753140159234,35.695107225345744],[139.75303105451866,35.695304939915076],[139.75294324051092,35.6954917005954]]],[[[139.7532971,35.6950927],[139.75329300417923,35.69510298746556],[139.75333323131406,35.69511364504392],[139.75559814388401,35.695191106912915],[139.7555987,35.69518029999999],[139.7556079796823,35.695188026112],[139.7556379590518,35.69516406532457],[139.75566442428467,35.6948686884605],[139.75563797571553,35.69486711153805],[139.7556122409498,35.69515433467405],[139.75559352070087,35.69516929668991],[139.75333796868534,35.69509215495603],[139.75331755028083,35.695086745406265],[139.75338503341857,35.69500106356088],[139.75361010153307,35.694812444509274],[139.75359109846875,35.69479735548998],[139.7533641665832,35.694987536438205],[139.7532859444098,35.69508685334936],[139.7532971,35.6950927]]],[[[139.75311619594902,35.69540446145054],[139.75307718618612,35.695541045685374],[139.7530901,35.6955435],[139.75308448242117,35.69555329775703],[139.7531607575352,35.69558239870416],[139.75347981049757,35.69562886858947],[139.75399954957976,35.69569597323739],[139.75400385041968,35.69567462676255],[139.75348418950182,35.69560753141046],[139.7531688424638,35.695561601295694],[139.7531054523496,35.69553741631607],[139.75314180405192,35.6954101385481],[139.75321130685984,35.695228027278006],[139.75324821852348,35.69518676281986],[139.75551281509047,35.69526823417386],[139.75554151035968,35.695276620007775],[139.7554319139176,35.695466947937064],[139.75529493057383,35.69572471431777],[139.7552279376427,35.6957385043619],[139.75410217863367,35.69568450223594],[139.7541006213661,35.69570609776404],[139.75523046235762,35.695760295638074],[139.7553077442668,35.69574438767598],[139.7553045,35.69573390000001],[139.75531666495962,35.69573820362038],[139.7554006649402,35.695580203611975],[139.7553885,35.6955759],[139.75540066690718,35.69558019991022],[139.75545608608377,35.69547585206173],[139.7555714068205,35.695274523875],[139.7555592,35.69527029999999],[139.75556367191862,35.69526011728124],[139.75551798490886,35.695246765826084],[139.75324228732546,35.695164894186206],[139.7532417,35.6951757],[139.75323098882197,35.695169324256305],[139.75318729314165,35.69521817272078],[139.75311619594902,35.69540446145054]]],[[[139.7528789383769,35.69583618489018],[139.75288306162255,35.69581481510975],[139.75265568953722,35.69578562210051],[139.75265160026598,35.69580699624288],[139.7528789383769,35.69583618489018]]],[[[139.75283071234347,35.69683547077161],[139.7528593521579,35.69688195705077],[139.7528712,35.69687710000001],[139.75286567458505,35.69688693260189],[139.75323650658694,35.69702559500336],[139.75401826102504,35.69736643154823],[139.75427897503667,35.69747039602919],[139.75430450878287,35.69747770609385],[139.75430890000004,35.697467499999995],[139.75431294362113,35.69747780122523],[139.75438535647902,35.69745888741689],[139.7544126286315,35.69741295536166],[139.75494855135307,35.69642942987027],[139.75514420228956,35.696057538855655],[139.75509223357295,35.69600401705925],[139.75391325892298,35.69592253873862],[139.75304995941678,35.69583657921301],[139.75304644058272,35.695858020786936],[139.7530872258675,35.69586247472229],[139.75299569091734,35.69595532605251],[139.7529542522865,35.696113648000996],[139.7529177750583,35.69630735794893],[139.75283071234347,35.69683547077161]],[[139.75311801763232,35.695865760185164],[139.75391054107664,35.695944061261315],[139.7550785664253,35.696024782940334],[139.7551135977098,35.6960608611424],[139.75492424864828,35.6964207701285],[139.75438857136984,35.69740384463713],[139.75436644352308,35.697441112582375],[139.75430909336217,35.697456092101504],[139.75428922496206,35.69745040397056],[139.75403033897354,35.69734716845146],[139.75324829341162,35.69700620499632],[139.75288095736533,35.696868849828604],[139.7528580876559,35.696831729226815],[139.75294402494222,35.696310442049615],[139.75298034771416,35.69611755199762],[139.7530203090841,35.69596487394624],[139.75311801763232,35.695865760185164]]],[[[139.75247135201636,35.69678396175029],[139.75247007457642,35.69680562801833],[139.75272568652312,35.696831603212914],[139.75272951347634,35.69681019678704],[139.75270261347984,35.69680699678747],[139.7527007,35.696817700000004],[139.7527023069708,35.69680696329811],[139.75247135201636,35.69678396175029]]],[[[139.75411825998944,35.697465229435835],[139.75361661170643,35.69725270102198],[139.7536105,35.6972623],[139.75361610675145,35.69725249807406],[139.75320677862177,35.69709670155669],[139.7529079814428,35.696969248239476],[139.75283861986816,35.69695718068124],[139.7528361,35.69696780000002],[139.75282296366052,35.69696632678534],[139.75282174403182,35.69697356318231],[139.75284677201964,35.69698389473973],[139.75284732897066,35.69698059018843],[139.75289881855605,35.69698975176031],[139.7531950213768,35.697116098443026],[139.7536046381285,35.69727200482425],[139.7540917400084,35.697478370562685],[139.75409174000382,35.697506135457026],[139.75411825999805,35.69751731768693],[139.75411825998944,35.697465229435835]]],[[[139.755121446059,35.69780939961915],[139.75567466946762,35.698037774324185],[139.7556806,35.6980281],[139.75569280616088,35.69803232594924],[139.75589642914434,35.69764098166258],[139.7560081193187,35.697420900957816],[139.7564855079375,35.69651301738816],[139.75647433111726,35.696486663633536],[139.75644926888168,35.696493736365156],[139.75645709206262,35.69651218261015],[139.75598371402327,35.697412435644665],[139.7559959,35.69741669999999],[139.75598364833584,35.69741256277891],[139.7558719708569,35.69763261833617],[139.75567390774307,35.698013276907105],[139.75513415393948,35.69779040038051],[139.75511323507243,35.697780395705216],[139.75506024929916,35.69776055122434],[139.75460177192346,35.697572293778634],[139.75459807353727,35.69753136504486],[139.75466902062874,35.697404366820145],[139.75491143271734,35.696988745986886],[139.75520388941678,35.69645934321043],[139.7551797105846,35.69645045678835],[139.75488736728406,35.69697965401189],[139.7546449793726,35.69739523317866],[139.75457112646336,35.69752743495364],[139.7545764280744,35.69758610622003],[139.75504875069944,35.69778004877537],[139.7551009649261,35.69779960429446],[139.755121446059,35.69780939961915]]],[[[139.75501495810218,35.69783055661685],[139.75457625728995,35.697658045096084],[139.75454375194533,35.69765177396875],[139.7545407,35.69766229999999],[139.7545287414552,35.69765762676122],[139.75451325416753,35.697683997030964],[139.75453681365371,35.69769395241597],[139.7545480433511,35.69767483155572],[139.7545673427089,35.697678554903725],[139.75500344189638,35.697850043382886],[139.75501495810218,35.69783055661685]]],[[[139.75504382636302,35.69790819589132],[139.75506737845228,35.697918147990855],[139.75508580436417,35.69788778641904],[139.75561588120019,35.698101503612705],[139.75562360398158,35.698120288763725],[139.75560924049051,35.69814711361443],[139.75563285971157,35.69815704968504],[139.7556519960186,35.6981213112346],[139.75563751879773,35.69808609638632],[139.755073795638,35.69785881358063],[139.75504382636302,35.69790819589132]]],[[[139.7558587012868,35.6951189646159],[139.75585257158502,35.69517096132189],[139.7558668451788,35.69519757563313],[139.75634820454252,35.69521680560512],[139.75704965956334,35.695240227475026],[139.75707358052037,35.69523925331835],[139.7570948682914,35.695235122855394],[139.7570918,35.69522460000001],[139.75710505410035,35.6952249120414],[139.7571166543986,35.694895701906816],[139.7570901456015,35.694895098091735],[139.7570788392497,35.69521599657747],[139.75704954043664,35.69521857252499],[139.7563493954573,35.69519519439487],[139.7558845548189,35.6951766243662],[139.75587962841436,35.69516743867659],[139.75592690161724,35.69476859300448],[139.75590038016966,35.69476756431725],[139.75585870188183,35.69511895958052],[139.7558719,35.69512],[139.7558587012868,35.6951189646159]]],[[[139.7556225,35.695658],[139.75560986103284,35.69565472931936],[139.75559952731365,35.69568130172888],[139.7555971522818,35.69572684023958],[139.7556104,35.6957273],[139.7555991399429,35.69573301195441],[139.7556174640078,35.69575704881979],[139.75565924071398,35.695782458214744],[139.7576221080364,35.69583210919642],[139.75787098853218,35.69584092621818],[139.7579189715702,35.69583929414151],[139.7579704564343,35.69581453758934],[139.7580133487273,35.695777419255805],[139.7580037,35.69577],[139.7580158842247,35.69577426721248],[139.75803650234585,35.6957350927704],[139.75811698032888,35.695353738403995],[139.75811428391117,35.69533324565543],[139.7581011,35.69533439999999],[139.75810164204358,35.69532359261111],[139.7571886734175,35.69529301298417],[139.7571533999566,35.69530233239354],[139.75714339627993,35.69530208840135],[139.75712072258557,35.69579786008479],[139.75708483545267,35.69579699525945],[139.757103551257,35.69530108983537],[139.757091180871,35.69530074621363],[139.75704831928846,35.695288457227775],[139.7558499060981,35.69524926036028],[139.75581991665103,35.69526425508314],[139.75561036696953,35.69565363683585],[139.7556225,35.695658]],[[139.7579112284308,35.69581790585835],[139.75787101146778,35.6958192737818],[139.75762309196344,35.69581049080355],[139.7571472298966,35.695798523740756],[139.7571682193959,35.69532115624507],[139.757192326583,35.695314787015796],[139.75808913606605,35.6953448261855],[139.75809021967123,35.695353061594524],[139.7580108976551,35.695728907228236],[139.7579924415918,35.69576397373878],[139.75795374356747,35.69579746241008],[139.7579112284308,35.69581790585835]],[[139.75585689390292,35.6952711396396],[139.75704328071083,35.695309942772134],[139.75707516683906,35.69531908495011],[139.75705832757927,35.69579635651738],[139.7556685592848,35.69576114178506],[139.7556373359904,35.69574215117935],[139.75562382171108,35.69572442362833],[139.75562587268698,35.69568509826967],[139.7556349222024,35.69566182807739],[139.7558281474902,35.69530293620904],[139.755816,35.6952986],[139.75582815156702,35.69530292860127],[139.7558408833509,35.695279144915936],[139.75585689390292,35.6952711396396]]],[[[139.75663292404138,35.69602048680145],[139.75552359481017,35.69599834200028],[139.75541090555978,35.69603190216494],[139.75520771077916,35.69639975644992],[139.7552318892222,35.696408643548864],[139.75543049444232,35.69604909783426],[139.75552800519037,35.696020057999654],[139.7566271227433,35.696042010439],[139.75665472847538,35.69606367157543],[139.75666489580536,35.696092779670735],[139.7565024664137,35.696419869246554],[139.75648390573443,35.696425323812875],[139.75649289426673,35.69644567618695],[139.7565233335885,35.696436730752545],[139.75669118377328,35.69609747297089],[139.7566789,35.696093399999995],[139.75669165220992,35.696090436019276],[139.7566782715229,35.696052128423396],[139.75664179228554,35.6960235046007],[139.7566326,35.6960313],[139.75663292404138,35.69602048680145]]],[[[139.7566407634106,35.69643024073736],[139.7566352179909,35.69641683931225],[139.75682500485192,35.69606873325006],[139.75686866515005,35.696047507096274],[139.75784328618053,35.696071684114706],[139.7578855967505,35.69609218240415],[139.75790955089118,35.69612806909814],[139.75791417513813,35.696158482447174],[139.75790219947203,35.696206768300364],[139.75781094125676,35.69646940166231],[139.75783505874458,35.696478398336495],[139.75783919082588,35.69647102759493],[139.75792800052875,35.69621183169826],[139.75794102486202,35.69615931755132],[139.75793524910773,35.696121330900496],[139.75790540324755,35.69607661759503],[139.7578511138184,35.69605031588517],[139.7568617348509,35.69602569290361],[139.75680781156086,35.69605190857451],[139.7568146,35.6960612],[139.75680248438587,35.69605680463754],[139.7566067820093,35.69641576068606],[139.75661563658832,35.69643715926135],[139.7566407634106,35.69643024073736]]],[[[139.7565564593679,35.69651164610573],[139.7557673029909,35.69803619934736],[139.75576634362704,35.69806924391657],[139.7557796,35.6980695],[139.75576999057006,35.69807695334991],[139.75579125043916,35.69809519151316],[139.75626056089058,35.69829081290084],[139.75646739165248,35.698370124699366],[139.756676684528,35.698456262240924],[139.7567047457383,35.69845322227696],[139.756703,35.6984425],[139.7567136739155,35.69844891767344],[139.75675205561464,35.698406441919566],[139.75689653367942,35.69813674946081],[139.75705142377572,35.697879165865814],[139.75780335766905,35.6965349002697],[139.75777924233236,35.6965258997291],[139.75702737622566,35.69787003413299],[139.756872594939,35.698127436647624],[139.7568845,35.69813220000001],[139.75687234937476,35.69812786884027],[139.75672894438696,35.69839555807933],[139.7566956690437,35.69843238278877],[139.7566813154713,35.69843393775901],[139.75647900834613,35.69835067530034],[139.75627223910803,35.698271387098856],[139.7558073495591,35.69807760848628],[139.7557929861326,35.69806528656371],[139.7557936970098,35.69804080065119],[139.75592500536249,35.697785627648145],[139.75609948367142,35.69745426874693],[139.7560873,35.69745],[139.75609958260057,35.69745407573958],[139.7565787406338,35.69652415389326],[139.7566089323848,35.69650026384448],[139.756590467617,35.6964847361548],[139.7565564593679,35.69651164610573]]],[[[139.75573981659636,35.69816687697404],[139.75576091274394,35.69817245193093],[139.75622114349005,35.69835650430759],[139.7566248784715,35.698521328028804],[139.75663106118253,35.69853862573323],[139.75662423012787,35.69855684187308],[139.7566482806756,35.69856666265923],[139.75665758019568,35.69854186392613],[139.7566449,35.6985387],[139.75665763013103,35.69853567243698],[139.75664712152638,35.69850627197015],[139.75643903584168,35.69842022767699],[139.75577088725484,35.69815234806884],[139.7557366867346,35.69814331009378],[139.7557326,35.6981536],[139.75572050774227,35.69814916147412],[139.75570147703206,35.698183659721195],[139.755725434051,35.698192949191316],[139.75573981659636,35.69816687697404]]],[[[139.75689264311143,35.69864028542934],[139.7574309440743,35.69885846396267],[139.75744285592424,35.69883913603701],[139.75689259905536,35.69861611286222],[139.7568867,35.69862580000001],[139.75687484100118,35.698620960679435],[139.75685596162958,35.69865174427896],[139.75687965944442,35.698661455844935],[139.75689264311143,35.69864028542934]]],[[[139.75854379166367,35.694520011637586],[139.7585748149795,35.694542966619125],[139.7595687436189,35.69455265954601],[139.75959264758757,35.694538058106936],[139.75957675241418,35.69452074189253],[139.7595600563822,35.694530940453845],[139.7585851850191,35.69452143338063],[139.75856478886735,35.694506341723674],[139.75856081187905,35.69449094931524],[139.7585770209302,35.694418445301224],[139.7586952949234,35.69394264961101],[139.7586693050773,35.693938350387576],[139.7585509790705,35.69441435469738],[139.75853378812093,35.69449125068324],[139.75853972554944,35.69451423074571],[139.7585527,35.694511999999996],[139.75854379166367,35.694520011637586]]],[[[139.758192525377,35.69493236659125],[139.75811858630294,35.69522643095909],[139.75810697160736,35.6952483262247],[139.7580821180266,35.69525313175033],[139.75751754484227,35.69523429270446],[139.75719482444907,35.69522340887999],[139.7571779613607,35.69522184426367],[139.75717169109004,35.695219536188866],[139.7571867498315,35.694898414374016],[139.75716025016865,35.69489758562453],[139.75714485006597,35.69522598665463],[139.7571581,35.69522640000001],[139.75715264622562,35.695236259142625],[139.75717083863836,35.69524295573621],[139.75719277555066,35.69524499111998],[139.75808468197377,35.69527486824965],[139.7581195581688,35.69526812481642],[139.7581165,35.695257600000005],[139.75812866915018,35.69526189559474],[139.75814401369814,35.69523296903957],[139.75821867462358,35.69493603340733],[139.75823276606363,35.69485336801943],[139.7582061583874,35.6948523906696],[139.758192525377,35.69493236659125]]],[[[139.75849514398644,35.69466364635475],[139.75846239072177,35.6947992083895],[139.75848840927893,35.694803391609085],[139.75852045601468,35.69467075364391],[139.75852733898475,35.69465965660821],[139.75854575445112,35.694652768933466],[139.75901250601567,35.69466121377287],[139.75901309398427,35.69463958622712],[139.75854024554963,35.69463103106645],[139.75851207375703,35.69464156776074],[139.7585176,35.6946514],[139.7585057687102,35.69464651670251],[139.75849514398644,35.69466364635475]]],[[[139.75847356500103,35.6948689461269],[139.7584474349996,35.694865253871725],[139.758413034974,35.695027253867984],[139.75843916502663,35.6950309461306],[139.75847356500103,35.6948689461269]]],[[[139.7595838482474,35.69539139281922],[139.75837230170046,35.69534901649771],[139.75843006573248,35.69507404283665],[139.75840393426816,35.69507035716193],[139.75835151710467,35.695317537790785],[139.75829589948054,35.69560802911331],[139.758309,35.6956097],[139.75829585432936,35.695608284620704],[139.75826715266663,35.695786694753046],[139.7582803,35.69578810000001],[139.7582711960806,35.695795964080865],[139.75833730306962,35.69584688860531],[139.75836760049833,35.69584880464879],[139.7595606246121,35.695876312094235],[139.7595613753878,35.69585468790576],[139.75834869692886,35.69582591139439],[139.75829432705714,35.69578402838778],[139.7583221249645,35.695611243351344],[139.7583681923728,35.69537052467048],[139.75958275175248,35.695413007180775],[139.7595838482474,35.69539139281922]]],[[[139.75918029310586,35.6961170135317],[139.7591809068941,35.696095386468286],[139.75834269958662,35.69608046887195],[139.75826787104683,35.696088250186484],[139.75819558726633,35.69613481865818],[139.7581741643067,35.696172746031564],[139.7580913941365,35.69642947677175],[139.75807480677435,35.69646294593562],[139.75809939322696,35.69647105406311],[139.75811660586464,35.69643632322695],[139.7581992356945,35.696180053967154],[139.75821701273554,35.69614858134085],[139.75827852895452,35.69610894981327],[139.75834410041358,35.69610213112804],[139.75918029310586,35.6961170135317]]],[[[139.75804080294384,35.6965317536519],[139.75799592462096,35.696622507565934],[139.75786596092848,35.696852166635075],[139.75789003907292,35.69686123336373],[139.75802027538037,35.69663109243283],[139.75806539705744,35.69653984634687],[139.75804080294384,35.6965317536519]]],[[[139.75711087343197,35.69824835389009],[139.7578574501288,35.69691891379094],[139.75783334987256,35.696909886207834],[139.7575139468594,35.697475491256704],[139.7570869265694,35.69823904610874],[139.75692718696118,35.698499374616816],[139.75691897257244,35.69854637335502],[139.7569321,35.6985479],[139.75692604958007,35.698557524817495],[139.7575071679968,35.698800532513296],[139.75751923200178,35.69878126748638],[139.75694656156395,35.69854179335634],[139.7569528130399,35.69850602538185],[139.75711087343197,35.69824835389009]]],[[[139.75845610229865,35.69870230485533],[139.75870145029552,35.698450661808984],[139.7586912,35.69844379999999],[139.75870261730404,35.69844930085581],[139.7590255021572,35.69800338358209],[139.75935878199732,35.6975154665923],[139.75933561800423,35.697504933406584],[139.75900249784434,35.69799261641679],[139.7586803019664,35.69843758201642],[139.75843509770303,35.69868909514376],[139.75812405919618,35.69902259014452],[139.75810594336437,35.69903539860395],[139.75759295569708,35.69881296289244],[139.7575804443014,35.69883203710724],[139.75791329269296,35.69897755827519],[139.75810965663626,35.699061401396],[139.7581510532863,35.699030371358184],[139.75845610229865,35.69870230485533]]],[[[139.75806676026514,35.69912565586615],[139.75806676026193,35.69910633375618],[139.75756048077056,35.698884372389],[139.75751534799318,35.69887608529587],[139.75748832258338,35.6989028743363],[139.7575127561492,35.698912699524485],[139.7575254520084,35.69890011470389],[139.75755111922828,35.69890482761081],[139.75803931976378,35.6991188629141],[139.75803770845525,35.699120472137174],[139.75806243609722,35.69912997443939],[139.75806676026514,35.69912565586615]]],[[[139.7610357281603,35.693747592635205],[139.76103152067313,35.69376731006014],[139.7610029467657,35.693796442410445],[139.76102365323607,35.69380995758865],[139.7610564793283,35.69377648993858],[139.76106247183986,35.69374840736331],[139.7610357281603,35.693747592635205]]],[[[139.75971984988726,35.69453773039519],[139.75974715920287,35.69456190204589],[139.76106187859622,35.69458791325414],[139.7610622,35.6945771],[139.7610664767043,35.694587338362375],[139.76108484140505,35.694582233599085],[139.7610913478245,35.69459328329563],[139.76111525217414,35.69458391670318],[139.76110724715622,35.69457032197907],[139.76112311112584,35.69455402456331],[139.76112435260188,35.694522648948634],[139.7611111,35.6945223],[139.76112432852744,35.69452156108286],[139.76107412887296,35.69392326639555],[139.7610476711268,35.693924733603],[139.76109782585607,35.69452249547727],[139.76109688887541,35.694546175435256],[139.76108373746186,35.69455968617521],[139.76106015956617,35.6945662400307],[139.7597590407956,35.6945404979538],[139.75973935011095,35.69452306960399],[139.75971984988726,35.69453773039519]]],[[[139.75961959599604,35.694650486263555],[139.75908229310687,35.69464078621125],[139.7590817068931,35.69466241378873],[139.75961900400387,35.694672113736424],[139.75961959599604,35.694650486263555]]],[[[139.7601906890343,35.69466068613815],[139.75969820093422,35.69465188635425],[139.75969759906567,35.694673513645746],[139.76019011096565,35.694682313861804],[139.7601906890343,35.69466068613815]]],[[[139.76111290490056,35.69469987532052],[139.76112415984574,35.69486938499631],[139.76115064015406,35.69486821500226],[139.76113889509807,35.69469132467809],[139.76112274782037,35.69467608004644],[139.7611222324724,35.69466950937366],[139.7607489765888,35.69466788374844],[139.76074882341123,35.69468951625154],[139.7611037030965,35.6946911879021],[139.76111290490056,35.69469987532052]]],[[[139.76068619046552,35.694688915081336],[139.76068660953436,35.69466728491863],[139.76025230959303,35.69466168491946],[139.76025189040695,35.69468331508053],[139.76068619046552,35.694688915081336]]],[[[139.76116665736507,35.695404437603486],[139.76114456735,35.695446631785074],[139.76024541972671,35.695401204258594],[139.76024378027307,35.69542279574137],[139.7611335369302,35.69546774884436],[139.76112598644247,35.69548219324913],[139.7606274826546,35.69583906095907],[139.7605128932927,35.69587395688001],[139.76028197965388,35.69587138567662],[139.75966997674587,35.69585718793717],[139.75966922325404,35.695878812062794],[139.76028142034605,35.69589301432338],[139.76051750670786,35.69589564311997],[139.76064131734702,35.69585793904053],[139.7609844013168,35.69561232102225],[139.7609990651944,35.69562617023964],[139.76101913480383,35.69561202975952],[139.76100433452152,35.69559805171871],[139.76114801355934,35.695495206749875],[139.7611933426356,35.69540856239504],[139.7611926535245,35.695390071328816],[139.7611794,35.6953904],[139.76119263039507,35.695389681919224],[139.76115763049953,35.69495998407318],[139.76114285427965,35.69496078364171],[139.76114402833966,35.69494059571988],[139.76075902839145,35.69492569572192],[139.76075777160835,35.69494730427806],[139.76113119718275,35.69496175635083],[139.7611661537378,35.69539092354456],[139.76116665736507,35.695404437603486]]],[[[139.75968171497982,35.695415813931376],[139.7601664150452,35.695424313932584],[139.76016698495474,35.69540268606742],[139.75968228502012,35.69539418606863],[139.75968171497982,35.695415813931376]]],[[[139.7597087874924,35.69613061119381],[139.75970961250746,35.696108988806174],[139.75931971256,35.69609908880756],[139.75931888743983,35.69612071119242],[139.7597087874924,35.69613061119381]]],[[[139.76036512506465,35.696203192584136],[139.76040415506426,35.69615416673204],[139.76037035294866,35.69612592319101],[139.75977611971868,35.69611068899086],[139.75977528028125,35.69613231100913],[139.76035884704982,35.6961472768087],[139.76037004493523,35.69615663326556],[139.760342874937,35.69619140741482],[139.75991527673125,35.6966982681314],[139.7599371232704,35.69671053186763],[139.76036512506465,35.696203192584136]]],[[[139.75987427488795,35.696757410272774],[139.7593796573982,35.697442334429965],[139.75940254260334,35.69745326556895],[139.75978489822518,35.69692380525532],[139.75979097527886,35.69692672224072],[139.75980442471956,35.69690807775887],[139.75979835805737,35.6969051657616],[139.75989712511364,35.696768389726145],[139.75987427488795,35.696757410272774]]],[[[139.75986732974997,35.696962996327706],[139.7598808125276,35.696944367075766],[139.7598750500836,35.69694164219896],[139.75986174991485,35.69696035780064],[139.75986732974997,35.696962996327706]]]]}}],"metadata":{"source":"© OpenStreetMap contributors (ODbL)","observedAt":"2026-09-24","note":"Only OSM ways explicitly tagged footway=sidewalk are shown; edges are schematic."}}
