{"type":"FeatureCollection","features":[{"type":"Feature","properties":{"name":"さくら通り","source_name":"さくら通り"},"geometry":{"type":"LineString","coordinates":[[139.7582432,35.6953139],[139.7581057,35.6953082],[139.7576406,35.6952916],[139.7575149,35.69528660000001],[139.7571919,35.6952737],[139.7571217,35.695270900000004],[139.7570475,35.69526789999999],[139.7563467,35.69524],[139.75617270000004,35.695233],[139.7558654,35.6952208],[139.7557327,35.6952155]]}},{"type":"Feature","properties":{"name":"専大通り","source_name":"専大通り"},"geometry":{"type":"LineString","coordinates":[[139.7554112,35.6958351],[139.7553615,35.69592680000001],[139.7552898,35.6960506],[139.7552634,35.6960972],[139.7551959,35.6962162],[139.7550741,35.69643200000001],[139.7550309,35.696510200000006],[139.7547962,35.696943700000006],[139.7545642,35.6973619],[139.7545141,35.6974517],[139.7544482,35.69756929999999],[139.75443816360365,35.69757105583541]]}},{"type":"Feature","properties":{"name":"白山通り","source_name":"白山通り"},"geometry":{"type":"LineString","coordinates":[[139.75856013217074,35.6938348560124],[139.7585587,35.693842499999995],[139.75854120000002,35.693923899999994],[139.7584698,35.694261999999995],[139.7584121,35.69455309999999],[139.7584045,35.6945861],[139.758368,35.69473659999999],[139.7583444,35.6948335],[139.7583184,35.6949387],[139.7582975,35.69504770000001],[139.7582576,35.695243299999994],[139.7582432,35.6953139],[139.7582292,35.695390599999996],[139.7581899,35.6956062],[139.7581652,35.6957305],[139.75815540000002,35.695779900000005],[139.75812410000003,35.69590500000001],[139.7581013,35.6960108],[139.7580669,35.696166999999996],[139.7580518,35.696214399999995],[139.7580367,35.6962618],[139.757946,35.6964993],[139.7577521,35.69684470000001],[139.7577228,35.6968951],[139.7575418,35.697213299999994],[139.7575159,35.69725920000001],[139.7574179,35.697442],[139.7573958,35.697482499999985],[139.7572995,35.697661200000006],[139.7572174,35.6978072],[139.757182,35.6978701],[139.7571566,35.697915],[139.757083,35.69804570000001],[139.7570096,35.69817960000001],[139.7569959,35.69820390000001],[139.75692660000004,35.6983223],[139.7568544,35.6984474],[139.7567968,35.69854539999999],[139.7567961690892,35.6985465424176]]}},{"type":"Feature","properties":{"name":"すずらん通り","source_name":"神田すずらん通り"},"geometry":{"type":"LineString","coordinates":[[139.76127605874217,35.695450248483546],[139.7611676,35.6954301],[139.7610917,35.69541600000001],[139.7607391,35.69539790000001],[139.7602044,35.6953682],[139.7596369,35.69535309999999],[139.7590185,35.695336700000006],[139.7588194,35.69533139999999],[139.7583646,35.695319299999994],[139.7582432,35.6953139]]}},{"type":"Feature","properties":{"name":"雉子橋通り","source_name":"雉子橋通り"},"geometry":{"type":"LineString","coordinates":[[139.75577655465653,35.69483495243109],[139.7557757,35.69484149999999],[139.7557386,35.695164],[139.7557327,35.6952155],[139.7557014,35.69527690000001],[139.7555984,35.69547790000001],[139.7554892,35.695688],[139.7554677,35.6957294],[139.7554112,35.6958351]]}},{"type":"Feature","properties":{"name":"靖国通り","source_name":"靖国通り"},"geometry":{"type":"LineString","coordinates":[[139.76127931697832,35.69548685559458],[139.7610454,35.695653500000006],[139.7607549,35.6958618],[139.7606785,35.695905399999994],[139.7606034,35.695932600000006],[139.7605149,35.6959479],[139.7604206,35.69595379999999],[139.7602795,35.695948099999995],[139.7601898,35.69594670000001],[139.7596207,35.6959377],[139.7587986,35.6959204],[139.7584159,35.6959112],[139.7583612,35.6959099],[139.75812410000003,35.69590500000001],[139.7578953,35.6958973],[139.7576203,35.6958898],[139.7570989,35.6958748],[139.7567971,35.6958668],[139.7561404,35.695849300000006],[139.7556247,35.695841],[139.7554112,35.6958351],[139.7551865,35.6958281],[139.7546724,35.69579300000001],[139.7541157,35.695753200000006],[139.7540264,35.6957468],[139.753861,35.695726799999996],[139.7534717,35.6956716],[139.7532137,35.695635500000016],[139.7531521,35.69562689999999],[139.7530082,35.6956095],[139.7529498,35.6956024],[139.75277223357392,35.695581777457306]]}}],"metadata":{"source":"© OpenStreetMap contributors (ODbL)","observedAt":"2026-09-24","note":"Street names from OSM highway tags."}}
