{"type":"FeatureCollection","features":[{"type":"Feature","properties":{"name":"神田神保町一丁目","ward":"千代田区","source":"国勢調査町丁・字等別境界データセット（CODH作成）","sourceUrl":"https://geoshape.ex.nii.ac.jp/ka/","license":"CC BY 4.0","extractedAt":"2026-09-22"},"geometry":{"type":"Polygon","coordinates":[[[139.761113,35.69382],[139.761125,35.693842],[139.761179,35.694469],[139.761248,35.695135],[139.761282,35.695517],[139.760988,35.695734],[139.760612,35.695987],[139.760556,35.696018],[139.760527,35.696057],[139.759921,35.696747],[139.759604,35.697185],[139.759157,35.697835],[139.759026,35.69802],[139.758858,35.698269],[139.758712,35.698445],[139.758427,35.69876],[139.758119,35.699072],[139.75789,35.698984],[139.757512,35.698832],[139.757278,35.698744],[139.756707,35.69851],[139.756893,35.698167],[139.756909,35.698149],[139.756981,35.698012],[139.757079,35.697845],[139.75709,35.69782],[139.757201,35.697624],[139.757289,35.697455],[139.757318,35.69741],[139.757448,35.697178],[139.757645,35.696815],[139.757855,35.696455],[139.758024,35.695956],[139.758061,35.695957],[139.758226,35.695326],[139.758364,35.694655],[139.758538,35.693835],[139.760227,35.693824],[139.760667,35.693818],[139.761113,35.69382]]]}},{"type":"Feature","properties":{"name":"神田神保町三丁目","ward":"千代田区","source":"国勢調査町丁・字等別境界データセット（CODH作成）","sourceUrl":"https://geoshape.ex.nii.ac.jp/ka/","license":"CC BY 4.0","extractedAt":"2026-09-22"},"geometry":{"type":"Polygon","coordinates":[[[139.755825,35.694123],[139.755752,35.694834],[139.755699,35.695208],[139.755022,35.696414],[139.754977,35.696506],[139.754728,35.696961],[139.754515,35.69736],[139.754412,35.69756],[139.753193,35.697046],[139.752568,35.696788],[139.752565,35.696802],[139.752558,35.696799],[139.75265,35.696283],[139.752769,35.695661],[139.752773,35.695563],[139.75282,35.695364],[139.752997,35.694975],[139.753182,35.694762],[139.753302,35.694648],[139.753588,35.69444],[139.753745,35.694343],[139.754074,35.694204],[139.754366,35.694125],[139.754958,35.693991],[139.755336,35.693885],[139.755518,35.69382],[139.755664,35.69371],[139.755736,35.693573],[139.755785,35.693429],[139.755833,35.693222],[139.756112,35.693297],[139.756098,35.693407],[139.756051,35.693562],[139.755986,35.693747],[139.755825,35.694123]]]}},{"type":"Feature","properties":{"name":"神田神保町二丁目","ward":"千代田区","source":"国勢調査町丁・字等別境界データセット（CODH作成）","sourceUrl":"https://geoshape.ex.nii.ac.jp/ka/","license":"CC BY 4.0","extractedAt":"2026-09-22"},"geometry":{"type":"Polygon","coordinates":[[[139.758245,35.694926],[139.758309,35.694925],[139.758226,35.695326],[139.758061,35.695957],[139.758024,35.695956],[139.757855,35.696455],[139.757645,35.696815],[139.757448,35.697178],[139.757318,35.69741],[139.757289,35.697455],[139.757201,35.697624],[139.75709,35.69782],[139.757079,35.697845],[139.756981,35.698012],[139.756909,35.698149],[139.756893,35.698167],[139.756707,35.69851],[139.755916,35.698187],[139.755671,35.698092],[139.754412,35.69756],[139.754515,35.69736],[139.754728,35.696961],[139.754977,35.696506],[139.755022,35.696414],[139.755699,35.695208],[139.755752,35.694834],[139.756345,35.694857],[139.757102,35.69488],[139.75751,35.694899],[139.758245,35.694926]]]}}]}
